24967,IRIDIUM 36,1997,100.22,-1.0,-,86.4,Inactive,0,LEO,USA,USA,Unknown,Unknown,Unknown,1 24967U 97056C   24193.42792502  .00000683  00000+0  22451-3 0  9998,2 24967  86.3982 316.1154 0002264  89.9397 270.2059 14.36883371403271,14.36883371,0.0002264,LEO
25042,IRIDIUM 39,1997,99.44,-1.0,-,86.39,Inactive,0,LEO,USA,USA,Unknown,Unknown,Unknown,1 25042U 97069D   24194.16256075  .00001051  00000+0  27678-3 0  9995,2 25042  86.3931 356.8591 0018409   8.3033 351.8472 14.48055437399991,14.48055437,0.0018409,LEO
25043,IRIDIUM 38,1997,100.19,-1.0,-,86.4,Inactive,0,LEO,USA,USA,Unknown,Unknown,Unknown,1 25043U 97069E   24194.05440493  .00000634  00000+0  20611-3 0  9999,2 25043  86.3962  16.2110 0003617 110.6692 249.4893 14.37330188397346,14.37330188,0.0003617,LEO
25077,IRIDIUM 42,1997,100.3,-1.0,-,86.4,Inactive,0,LEO,PRC,USA,Unknown,Unknown,Unknown,1 25077U 97077A   24193.78823863  .00000535  00000+0  17885-3 0  9999,2 25077  86.3962  22.0723 0002457 102.5547 257.5924 14.35622953392340,14.35622953,0.0002457,LEO
25078,IRIDIUM 44,1997,100.04,-1.0,-,86.4,Inactive,0,LEO,PRC,USA,Unknown,Unknown,Unknown,1 25078U 97077B   24194.51728652  .00000737  00000+0  23020-3 0  9994,2 25078  86.3966   4.6077 0003875  78.1673 281.9961 14.39470980394851,14.3947098,0.0003875,LEO
25104,IRIDIUM 45,1997,95.75,-1.0,-,86.37,Inactive,0,LEO,USA,USA,Unknown,Unknown,Unknown,1 25104U 97082A   24194.50561393  .00013976  00000+0  76060-3 0  9997,2 25104  86.3721 210.3585 0159013 146.3049 214.8420 15.04013426400912,15.04013426,0.0159013,LEO
25105,IRIDIUM 24,1997,99.91,-1.0,-,86.39,Inactive,0,LEO,USA,USA,Unknown,Unknown,Unknown,1 25105U 97082B   24194.50477639  .00000683  00000+0  20503-3 0  9999,2 25105  86.3906 224.1551 0013613 115.6122 244.6486 14.41256645394524,14.41256645,0.0013613,LEO
25262,IRIDIUM 51,1998,95.22,-1.0,-,86.4,Inactive,0,LEO,PRC,USA,Unknown,Unknown,Unknown,1 25262U 98018A   24193.80181981  .00019586  00000+0  86938-3 0  9993,2 25262  86.3955 220.4331 0145068  92.3733 269.4123 15.12360562395130,15.12360562,0.0145068,LEO
